$$SOE
2460154.500000000, A.D. 2023-Jul-29 00:00:00.0000, 2.248100181379815E+07, 4.148614220733373E+08, 4.169267020298839E+05,
2460161.500000000, A.D. 2023-Aug-05 00:00:00.0000, 1.109805509188225E+07, 4.145697579189819E+08, 9.260845419146419E+05,
2460168.500000000, A.D. 2023-Aug-12 00:00:00.0000, -2.923987998250416E+05, 4.139959350438489E+08, 1.434610931548119E+06,
2460175.500000000, A.D. 2023-Aug-19 00:00:00.0000, -1.168261214873549E+07, 4.131388694371662E+08, 1.942154850972146E+06,
2460182.500000000, A.D. 2023-Aug-26 00:00:00.0000, -2.306475746427495E+07, 4.119977287839592E+08, 2.448362563880771E+06,
2460189.500000000, A.D. 2023-Sep-02 00:00:00.0000, -3.443093745826384E+07, 4.105719381212394E+08, 2.952878084539831E+06,
2460196.500000000, A.D. 2023-Sep-09 00:00:00.0000, -4.577319542821744E+07, 4.088611849058104E+08, 3.455343650417686E+06,
2460203.500000000, A.D. 2023-Sep-16 00:00:00.0000, -5.708352584914742E+07, 4.068654234014652E+08, 3.955400179126918E+06,
2460210.500000000, A.D. 2023-Sep-23 00:00:00.0000, -6.835388472882736E+07, 4.045848786399722E+08, 4.452687693608731E+06,
2460217.500000000, A.D. 2023-Sep-30 00:00:00.0000, -7.957620003476071E+07, 4.020200511175817E+08, 4.946845842520416E+06,
2460224.500000000, A.D. 2023-Oct-07 00:00:00.0000, -9.074238451033922E+07, 3.991717216576886E+08, 5.437514685593069E+06,
2460231.500000000, A.D. 2023-Oct-14 00:00:00.0000, -1.018443498009343E+08, 3.960409530969290E+08, 5.924335376336366E+06,
2460238.500000000, A.D. 2023-Oct-21 00:00:00.0000, -1.128740186246087E+08, 3.926290903727660E+08, 6.406950575614899E+06,
2460245.500000000, A.D. 2023-Oct-28 00:00:00.0000, -1.238233363709127E+08, 3.889377612575826E+08, 6.885004909491688E+06,
2460252.500000000, A.D. 2023-Nov-04 00:00:00.0000, -1.346842833312470E+08, 3.849688769538363E+08, 7.358145521017224E+06,
2460259.500000000, A.D. 2023-Nov-11 00:00:00.0000, -1.454488873351726E+08, 3.807246319360048E+08, 7.826022648768634E+06,
2460266.500000000, A.D. 2023-Nov-18 00:00:00.0000, -1.561092365237573E+08, 3.762075029633840E+08, 8.288290204800189E+06,
2460273.500000000, A.D. 2023-Nov-25 00:00:00.0000, -1.666574921370609E+08, 3.714202472770863E+08, 8.744606345185623E+06,
2460280.500000000, A.D. 2023-Dec-02 00:00:00.0000, -1.770859012386060E+08, 3.663658999642000E+08, 9.194634027703583E+06,
2460287.500000000, A.D. 2023-Dec-09 00:00:00.0000, -1.873868092519344E+08, 3.610477704300187E+08, 9.638041542788669E+06,
2460294.500000000, A.D. 2023-Dec-16 00:00:00.0000, -1.975526719755047E+08, 3.554694379977558E+08, 1.007450299041829E+07,
2460301.500000000, A.D. 2023-Dec-23 00:00:00.0000, -2.075760666809731E+08, 3.496347473363839E+08, 1.050369872504015E+07,
2460308.500000000, A.D. 2023-Dec-30 00:00:00.0000, -2.174497035883217E+08, 3.435478047846776E+08, 1.092531597492082E+07,
2460315.500000000, A.D. 2024-Jan-06 00:00:00.0000, -2.271664394412618E+08, 3.372129732334179E+08, 1.133904960312799E+07,
2460322.500000000, A.D. 2024-Jan-13 00:00:00.0000, -2.367192899591475E+08, 3.306348637785952E+08, 1.174460256934783E+07,
2460329.500000000, A.D. 2024-Jan-20 00:00:00.0000, -2.461014398977597E+08, 3.238183272516212E+08, 1.214168623044816E+07,
2460336.500000000, A.D. 2024-Jan-27 00:00:00.0000, -2.553062527074291E+08, 3.167684463091559E+08, 1.253002071694134E+07,
2460343.500000000, A.D. 2024-Feb-03 00:00:00.0000, -2.643272801758566E+08, 3.094905271662735E+08, 1.290933534501395E+07,
2460350.500000000, A.D. 2024-Feb-10 00:00:00.0000, -2.731582717404459E+08, 3.019900907146326E+08, 1.327936901306282E+07,
2460357.500000000, A.D. 2024-Feb-17 00:00:00.0000, -2.817931832983859E+08, 2.942728630692327E+08, 1.363987056905039E+07,
2460364.500000000, A.D. 2024-Feb-24 00:00:00.0000, -2.902261854498519E+08, 2.863447655977392E+08, 1.399059914522263E+07,
2460371.500000000, A.D. 2024-Mar-02 00:00:00.0000, -2.984516711201335E+08, 2.782119044422833E+08, 1.433132445375796E+07,
2460378.500000000, A.D. 2024-Mar-09 00:00:00.0000, -3.064642624003896E+08, 2.698805595158544E+08, 1.466182702465448E+07,
2460385.500000000, A.D. 2024-Mar-16 00:00:00.0000, -3.142588161933344E+08, 2.613571732170426E+08, 1.498189836511621E+07,
2460392.500000000, A.D. 2024-Mar-23 00:00:00.0000, -3.218304287527412E+08, 2.526483400193220E+08, 1.529134114012010E+07,
2460399.500000000, A.D. 2024-Mar-30 00:00:00.0000, -3.291744413483204E+08, 2.437607969566227E+08, 1.558996957718104E+07,
2460406.500000000, A.D. 2024-Apr-06 00:00:00.0000, -3.362864467927989E+08, 2.347014116880078E+08, 1.587760979640634E+07,
2460413.500000000, A.D. 2024-Apr-13 00:00:00.0000, -3.431622932722358E+08, 2.254771690246021E+08, 1.615409980858865E+07,
2460420.500000000, A.D. 2024-Apr-20 00:00:00.0000, -3.497980864310346E+08, 2.160951586387163E+08, 1.641928948763794E+07,
2460427.500000000, A.D. 2024-Apr-27 00:00:00.0000, -3.561901912355023E+08, 2.065625634402973E+08, 1.667304061085984E+07,
2460434.500000000, A.D. 2024-May-04 00:00:00.0000, -3.623352335360714E+08, 1.968866479641253E+08, 1.691522690203226E+07,
2460441.500000000, A.D. 2024-May-11 00:00:00.0000, -3.682301010998746E+08, 1.870747467100015E+08, 1.714573404784709E+07,
2460448.500000000, A.D. 2024-May-18 00:00:00.0000, -3.738719440452574E+08, 1.771342524994704E+08, 1.736445968288758E+07,
2460455.500000000, A.D. 2024-May-25 00:00:00.0000, -3.792581746704143E+08, 1.670726048821605E+08, 1.757131334136928E+07,
2460462.500000000, A.D. 2024-Jun-01 00:00:00.0000, -3.843864666360222E+08, 1.568972785725937E+08, 1.776621636669154E+07,
2460469.500000000, A.D. 2024-Jun-08 00:00:00.0000, -3.892547532776167E+08, 1.466157719305202E+08, 1.794910175569372E+07,
2460476.500000000, A.D. 2024-Jun-15 00:00:00.0000, -3.938612246723078E+08, 1.362355960631905E+08, 1.811991394698938E+07,
2460483.500000000, A.D. 2024-Jun-22 00:00:00.0000, -3.982043244915922E+08, 1.257642657549583E+08, 1.827860874314322E+07,
2460490.500000000, A.D. 2024-Jun-29 00:00:00.0000, -4.022827487922494E+08, 1.152092904315086E+08, 1.842515341405264E+07,
2460497.500000000, A.D. 2024-Jul-06 00:00:00.0000, -4.060954441318120E+08, 1.045781627151441E+08, 1.855952653867897E+07,
2460504.500000000, A.D. 2024-Jul-13 00:00:00.0000, -4.096416030874867E+08, 9.387834741906664E+07, 1.868171763887931E+07,
2460511.500000000, A.D. 2024-Jul-20 00:00:00.0000, -4.129206591940604E+08, 8.311727214770085E+07, 1.879172688287344E+07,
2460518.500000000, A.D. 2024-Jul-27 00:00:00.0000, -4.159322819904678E+08, 7.230231856086734E+07, 1.888956484150210E+07,
2460525.500000000, A.D. 2024-Aug-03 00:00:00.0000, -4.186763719343072E+08, 6.144081394331332E+07, 1.897525224301131E+07,
2460532.500000000, A.D. 2024-Aug-10 00:00:00.0000, -4.211530550480301E+08, 5.054002308788554E+07, 1.904881971212181E+07,
2460539.500000000, A.D. 2024-Aug-17 00:00:00.0000, -4.233626772785614E+08, 3.960714052213120E+07, 1.911030749203743E+07,
2460546.500000000, A.D. 2024-Aug-24 00:00:00.0000, -4.253057985733271E+08, 2.864928306036445E+07, 1.915976514618402E+07,
2460553.500000000, A.D. 2024-Aug-31 00:00:00.0000, -4.269831865901095E+08, 1.767348262202407E+07, 1.919725122523337E+07,
2460560.500000000, A.D. 2024-Sep-07 00:00:00.0000, -4.283958097089484E+08, 6.686679444391754E+06, 1.922283287741595E+07,
2460567.500000000, A.D. 2024-Sep-14 00:00:00.0000, -4.295448292929518E+08, -4.304283313531976E+06, 1.923658547685706E+07,
2460574.500000000, A.D. 2024-Sep-21 00:00:00.0000, -4.304315932567956E+08, -1.529266316463183E+07, 1.923859249080561E+07,
2460581.500000000, A.D. 2024-Sep-28 00:00:00.0000, -4.310576314599961E+08, -2.627182331594350E+07, 1.922894536773051E+07,
2460588.500000000, A.D. 2024-Oct-05 00:00:00.0000, -4.314246492830707E+08, -3.723523912196939E+07, 1.920774311098872E+07,
2460595.500000000, A.D. 2024-Oct-12 00:00:00.0000, -4.315345197700959E+08, -4.817650299472432E+07, 1.917509181580496E+07,
2460602.500000000, A.D. 2024-Oct-19 00:00:00.0000, -4.313892761100236E+08, -5.908932805094939E+07, 1.913110430891535E+07,
2460609.500000000, A.D. 2024-Oct-26 00:00:00.0000, -4.309911045121113E+08, -6.996755130929992E+07, 1.907589982918630E+07,
2460616.500000000, A.D. 2024-Nov-02 00:00:00.0000, -4.303423372405980E+08, -8.080513659713663E+07, 1.900960371440645E+07,
2460623.500000000, A.D. 2024-Nov-09 00:00:00.0000, -4.294454457322379E+08, -9.159617715776911E+07, 1.893234708801829E+07,
2460630.500000000, A.D. 2024-Nov-16 00:00:00.0000, -4.283030337889940E+08, -1.023348979703754E+08, 1.884426654429980E+07,
2460637.500000000, A.D. 2024-Nov-23 00:00:00.0000, -4.269178308156934E+08, -1.130156578458528E+08, 1.874550382440522E+07,
2460644.500000000, A.D. 2024-Nov-30 00:00:00.0000, -4.252926849097554E+08, -1.236329513551929E+08, 1.863620546141353E+07,
2460651.500000000, A.D. 2024-Dec-07 00:00:00.0000, -4.234305553974581E+08, -1.341814101840446E+08, 1.851652239098123E+07,
2460658.500000000, A.D. 2024-Dec-14 00:00:00.0000, -4.213345055174892E+08, -1.446558027041471E+08, 1.838660969140525E+07,
2460665.500000000, A.D. 2024-Dec-21 00:00:00.0000, -4.190076975813349E+08, -1.550510330180129E+08, 1.824662656488129E+07,
2460672.500000000, A.D. 2024-Dec-28 00:00:00.0000, -4.164533886495488E+08, -1.653621424604062E+08, 1.809673613709816E+07,
2460679.500000000, A.D. 2025-Jan-04 00:00:00.0000, -4.136749241370816E+08, -1.755843111951985E+08, 1.793710503183986E+07,
2460686.500000000, A.D. 2025-Jan-11 00:00:00.0000, -4.106757311757171E+08, -1.857128582615576E+08, 1.776790302390753E+07,
2460693.500000000, A.D. 2025-Jan-18 00:00:00.0000, -4.074593126554040E+08, -1.957432410031733E+08, 1.758930277978608E+07,
2460700.500000000, A.D. 2025-Jan-25 00:00:00.0000, -4.040292417060906E+08, -2.056710543708513E+08, 1.740147962528045E+07,
2460707.500000000, A.D. 2025-Feb-01 00:00:00.0000, -4.003891564356814E+08, -2.154920301439035E+08, 1.720461132068040E+07,
2460714.500000000, A.D. 2025-Feb-08 00:00:00.0000, -3.965427548697895E+08, -2.252020360650523E+08, 1.699887784010851E+07,
2460721.500000000, A.D. 2025-Feb-15 00:00:00.0000, -3.924937900672220E+08, -2.347970749227262E+08, 1.678446115109615E+07,
$$EOE